{
  "links" : {
    "next" : "https://api.nasa.gov/neo/rest/v1/feed?start_date=2013-01-09&end_date=2013-01-09&detailed=true&api_key=t0TVs3DtDT2H8Oy2Zy8m2eVrNsAVKAexjcZXUckd",
    "prev" : "https://api.nasa.gov/neo/rest/v1/feed?start_date=2013-01-07&end_date=2013-01-07&detailed=true&api_key=t0TVs3DtDT2H8Oy2Zy8m2eVrNsAVKAexjcZXUckd",
    "self" : "https://api.nasa.gov/neo/rest/v1/feed?start_date=2013-01-08&end_date=2013-01-08&detailed=true&api_key=t0TVs3DtDT2H8Oy2Zy8m2eVrNsAVKAexjcZXUckd"
  },
  "element_count" : 7,
  "near_earth_objects" : {
    "2013-01-08" : [ {
      "links" : {
        "self" : "https://api.nasa.gov/neo/rest/v1/neo/3624234?api_key=t0TVs3DtDT2H8Oy2Zy8m2eVrNsAVKAexjcZXUckd"
      },
      "neo_reference_id" : "3624234",
      "name" : "(2013 BV2)",
      "nasa_jpl_url" : "http://ssd.jpl.nasa.gov/sbdb.cgi?sstr=3624234",
      "absolute_magnitude_h" : 25.4,
      "estimated_diameter" : {
        "kilometers" : {
          "estimated_diameter_min" : 0.022108281,
          "estimated_diameter_max" : 0.0494356193
        },
        "meters" : {
          "estimated_diameter_min" : 22.1082810359,
          "estimated_diameter_max" : 49.435619262
        },
        "miles" : {
          "estimated_diameter_min" : 0.0137374447,
          "estimated_diameter_max" : 0.0307178602
        },
        "feet" : {
          "estimated_diameter_min" : 72.5337327539,
          "estimated_diameter_max" : 162.1903570994
        }
      },
      "is_potentially_hazardous_asteroid" : false,
      "close_approach_data" : [ {
        "close_approach_date" : "2013-01-08",
        "epoch_date_close_approach" : 1357632000000,
        "relative_velocity" : {
          "kilometers_per_second" : "11.6689087291",
          "kilometers_per_hour" : "42008.0714246513",
          "miles_per_hour" : "26102.1819360562"
        },
        "miss_distance" : {
          "astronomical" : "0.0245568994",
          "lunar" : "9.5526342392",
          "kilometers" : "3673660",
          "miles" : "2282706.5"
        },
        "orbiting_body" : "Earth"
      } ],
      "orbital_data" : {
        "orbit_id" : "5",
        "orbit_determination_date" : "2017-04-06 08:47:10",
        "orbit_uncertainty" : "7",
        "minimum_orbit_intersection" : ".024572",
        "jupiter_tisserand_invariant" : "4.786",
        "epoch_osculation" : "2458000.5",
        "eccentricity" : ".4191249145373995",
        "semi_major_axis" : "1.345524003971017",
        "inclination" : "5.685540269195291",
        "ascending_node_longitude" : "121.9780229579018",
        "orbital_period" : "570.0797332034635",
        "perihelion_distance" : ".781581370798645",
        "perihelion_argument" : "272.872727398965",
        "aphelion_distance" : "1.909466637143389",
        "perihelion_time" : "2457960.460120595924",
        "mean_anomaly" : "25.28480797671655",
        "mean_motion" : ".6314906126850763",
        "equinox" : "J2000"
      }
    }, {
      "links" : {
        "self" : "https://api.nasa.gov/neo/rest/v1/neo/3689349?api_key=t0TVs3DtDT2H8Oy2Zy8m2eVrNsAVKAexjcZXUckd"
      },
      "neo_reference_id" : "3689349",
      "name" : "(2014 SJ142)",
      "nasa_jpl_url" : "http://ssd.jpl.nasa.gov/sbdb.cgi?sstr=3689349",
      "absolute_magnitude_h" : 23.2,
      "estimated_diameter" : {
        "kilometers" : {
          "estimated_diameter_min" : 0.0608912622,
          "estimated_diameter_max" : 0.1361570015
        },
        "meters" : {
          "estimated_diameter_min" : 60.8912622106,
          "estimated_diameter_max" : 136.1570015386
        },
        "miles" : {
          "estimated_diameter_min" : 0.0378360645,
          "estimated_diameter_max" : 0.0846040122
        },
        "feet" : {
          "estimated_diameter_min" : 199.7744887109,
          "estimated_diameter_max" : 446.7093369279
        }
      },
      "is_potentially_hazardous_asteroid" : false,
      "close_approach_data" : [ {
        "close_approach_date" : "2013-01-08",
        "epoch_date_close_approach" : 1357632000000,
        "relative_velocity" : {
          "kilometers_per_second" : "11.2972842644",
          "kilometers_per_hour" : "40670.2233518947",
          "miles_per_hour" : "25270.8951710704"
        },
        "miss_distance" : {
          "astronomical" : "0.2128777279",
          "lunar" : "82.8094329834",
          "kilometers" : "31846054",
          "miles" : "19788220"
        },
        "orbiting_body" : "Earth"
      } ],
      "orbital_data" : {
        "orbit_id" : "13",
        "orbit_determination_date" : "2017-04-06 08:38:36",
        "orbit_uncertainty" : "7",
        "minimum_orbit_intersection" : ".00619496",
        "jupiter_tisserand_invariant" : "4.280",
        "epoch_osculation" : "2458000.5",
        "eccentricity" : ".5080188689432343",
        "semi_major_axis" : "1.558818245279435",
        "inclination" : "2.085689092444765",
        "ascending_node_longitude" : "336.6146842080856",
        "orbital_period" : "710.8723911488971",
        "perihelion_distance" : ".7669091634244992",
        "perihelion_argument" : "119.1652283613826",
        "aphelion_distance" : "2.350727327134371",
        "perihelion_time" : "2457714.543029017423",
        "mean_anomaly" : "144.8143307230583",
        "mean_motion" : ".5064200051688258",
        "equinox" : "J2000"
      }
    }, {
      "links" : {
        "self" : "https://api.nasa.gov/neo/rest/v1/neo/3735678?api_key=t0TVs3DtDT2H8Oy2Zy8m2eVrNsAVKAexjcZXUckd"
      },
      "neo_reference_id" : "3735678",
      "name" : "(2015 XT1)",
      "nasa_jpl_url" : "http://ssd.jpl.nasa.gov/sbdb.cgi?sstr=3735678",
      "absolute_magnitude_h" : 23.3,
      "estimated_diameter" : {
        "kilometers" : {
          "estimated_diameter_min" : 0.058150704,
          "estimated_diameter_max" : 0.130028927
        },
        "meters" : {
          "estimated_diameter_min" : 58.1507039646,
          "estimated_diameter_max" : 130.0289270043
        },
        "miles" : {
          "estimated_diameter_min" : 0.0361331611,
          "estimated_diameter_max" : 0.0807962044
        },
        "feet" : {
          "estimated_diameter_min" : 190.7831555951,
          "estimated_diameter_max" : 426.6041048727
        }
      },
      "is_potentially_hazardous_asteroid" : false,
      "close_approach_data" : [ {
        "close_approach_date" : "2013-01-08",
        "epoch_date_close_approach" : 1357632000000,
        "relative_velocity" : {
          "kilometers_per_second" : "8.1176996275",
          "kilometers_per_hour" : "29223.7186589658",
          "miles_per_hour" : "18158.4822967335"
        },
        "miss_distance" : {
          "astronomical" : "0.0597783507",
          "lunar" : "23.2537784576",
          "kilometers" : "8942714",
          "miles" : "5556745"
        },
        "orbiting_body" : "Earth"
      } ],
      "orbital_data" : {
        "orbit_id" : "15",
        "orbit_determination_date" : "2017-04-06 08:30:16",
        "orbit_uncertainty" : "6",
        "minimum_orbit_intersection" : ".0485347",
        "jupiter_tisserand_invariant" : "7.021",
        "epoch_osculation" : "2458000.5",
        "eccentricity" : ".3300272165303476",
        "semi_major_axis" : ".8298855011061081",
        "inclination" : "4.977297292677525",
        "ascending_node_longitude" : "143.8828765846776",
        "orbital_period" : "276.1376932132466",
        "perihelion_distance" : ".5560006991371665",
        "perihelion_argument" : "102.3412275502733",
        "aphelion_distance" : "1.10377030307505",
        "perihelion_time" : "2458042.420887140630",
        "mean_anomaly" : "305.3478473184306",
        "mean_motion" : "1.303697426493641",
        "equinox" : "J2000"
      }
    } ]
  }
}